NORAD_CAT_ID,OBJECT_NAME,OBJECT_TYPE,EPOCH,MEAN_MOTION,ECCENTRICITY,INCLINATION,RA_OF_ASC_NODE,ARG_OF_PERICENTER,MEAN_ANOMALY,BSTAR,MEAN_MOTION_DOT,MEAN_MOTION_DDOT,TLE_LINE0,TLE_LINE1,TLE_LINE2,SEMIMAJOR_AXIS,PERIOD,APOGEE,PERIGEE,DECAYED
50805.0,STARLINK-3333,PAYLOAD,2022-02-19 14:00:01,15.73205735,0.00015,53.2165,342.8726,33.2397,91.2044,0.00040142,0.00056108,0.0,0 STARLINK-3333,1 50805U 22001C   22050.58334491  .00056108  00000-0  40142-3 0  9993,2 50805  53.2165 342.8726 0001500  33.2397  91.2044 15.73205735  3682,6727.879,91.533,350.75300000000016,348.735,0.0
50805.0,STARLINK-3333,PAYLOAD,2022-02-19 20:00:01,15.73277444,0.0001571999999999,53.2168,341.6352,40.4627,60.6915,-0.00047575,-0.00067081,0.0,0 STARLINK-3333,1 50805U 22001C   22050.83334491 -.00067081  00000-0 -47575-3 0  9992,2 50805  53.2168 341.6352 0001572  40.4627  60.6915 15.73277444  8220,6727.674,91.529,350.597,348.482,0.0
50805.0,STARLINK-3333,PAYLOAD,2022-02-20 14:00:01,15.73120362,0.0001702,53.2164,337.9240000000001,43.8584,347.4344,0.0003674,0.00051081,0.0,0 STARLINK-3333,1 50805U 22001C   22051.58334491  .00051081  00000-0  36740-3 0  9998,2 50805  53.2164 337.9240 0001702  43.8584 347.4344 15.73120362  8345,6728.121999999999,91.538,351.13199999999995,348.842,0.0
50805.0,STARLINK-3333,PAYLOAD,2022-02-20 22:00:00,15.73169949,0.000178,53.2162,336.2754,45.0478,75.0871,7.734199999999999e-05,0.00010234,0.0,0 STARLINK-3333,1 50805U 22001C   22051.91667824  .00010234  00000-0  77342-4 0  9993,2 50805  53.2162 336.2754 0001780  45.0478  75.0871 15.73169949  3660,6727.981,91.535,351.043,348.648,0.0
50805.0,STARLINK-3333,PAYLOAD,2022-02-21 14:00:01,15.73165349,0.0001589,53.2158,332.9758,41.8024,256.1515,2.3004e-05,2.605e-05,0.0,0 STARLINK-3333,1 50805U 22001C   22052.58334491  .00002605  00000-0  23004-4 0  9997,2 50805  53.2158 332.9758 0001589  41.8024 256.1515 15.73165349  8493,6727.994000000002,91.535,350.92800000000005,348.79,0.0
50805.0,STARLINK-3333,PAYLOAD,2022-02-21 22:00:00,15.73195102,0.0001625,53.2161,331.327,40.8223,346.0158,4.4305e-05,5.600000000000001e-05,0.0,0 STARLINK-3333,1 50805U 22001C   22052.91667824  .00005600  00000-0  44305-4 0  9998,2 50805  53.2161 331.3270 0001625  40.8223 346.0158 15.73195102  3666,6727.909000000002,91.533,350.867,348.681,0.0
50805.0,STARLINK-3333,PAYLOAD,2022-02-22 04:00:00,15.73177281,0.0001788,53.2161,330.0912,37.497,326.0382,0.00056738,0.0007968999999999,0.0,0 STARLINK-3333,1 50805U 22001C   22053.16667824  .00079690  00000-0  56738-3 0  9998,2 50805  53.2161 330.0912 0001788  37.4970 326.0382 15.73177281  8598,6727.96,91.535,351.028,348.622,0.0
50805.0,STARLINK-3333,PAYLOAD,2022-02-22 14:00:01,15.73242747,0.0001474,53.2157,328.027,37.5314,167.1792,-9.6922e-05,-0.00014225,0.0,0 STARLINK-3333,1 50805U 22001C   22053.58334491 -.00014225  00000-0 -96922-4 0  9990,2 50805  53.2157 328.0270 0001474  37.5314 167.1792 15.73242747  3686,6727.773,91.531,350.63,348.647,0.0
50805.0,STARLINK-3333,PAYLOAD,2022-02-22 20:00:01,15.73225151,0.000146,53.2157,326.7903,37.5523,143.8913,-7.5981e-05,-0.00011281,0.0,0 STARLINK-3333,1 50805U 22001C   22053.83334491 -.00011281  00000-0 -75981-4 0  9999,2 50805  53.2157 326.7903 0001460  37.5523 143.8913 15.73225151  8693,6727.823,91.532,350.671,348.706,0.0
50805.0,STARLINK-3333,PAYLOAD,2022-02-22 22:00:00,15.73214574,0.0001520999999999,53.2155,326.3785,35.1171,258.5688,4.4026e-05,5.566e-05,0.0,0 STARLINK-3333,1 50805U 22001C   22053.91667824  .00005566  00000-0  44026-4 0  9990,2 50805  53.2155 326.3785 0001521  35.1171 258.5688 15.73214574  3691,6727.854,91.532,350.742,348.695,0.0
50805.0,STARLINK-3333,PAYLOAD,2022-02-23 06:00:00,15.73250536,0.000168,53.215,324.7299,30.6165,352.0295,-0.00023929,-0.00034141,0.0,0 STARLINK-3333,1 50805U 22001C   22054.25001157 -.00034141  00000-0 -23929-3 0  9990,2 50805  53.2150 324.7299 0001680  30.6165 352.0295 15.73250536  8762,6727.751,91.53,350.746,348.486,0.0
50805.0,STARLINK-3333,PAYLOAD,2022-02-23 14:00:01,15.73199644,0.0001429,53.2152,323.0781,38.0758,73.5358,-9.065e-05,-0.00013322,0.0,0 STARLINK-3333,1 50805U 22001C   22054.58334491 -.00013322  00000-0 -90650-4 0  9990,2 50805  53.2152 323.0781 0001429  38.0758  73.5358 15.73199644  3710,6727.896,91.533,350.723,348.8,0.0
50805.0,STARLINK-3333,PAYLOAD,2022-02-23 20:00:01,15.73177414,0.0001441999999999,53.2156,321.8414,37.7189,50.5693,-6.0197e-05,-9.051e-05,0.0,0 STARLINK-3333,1 50805U 22001C   22054.83334491 -.00009051  00000-0 -60197-4 0  9995,2 50805  53.2156 321.8414 0001442  37.7189  50.5693 15.73177414  8850,6727.96,91.534,350.795,348.85400000000016,0.0
50805.0,STARLINK-3333,PAYLOAD,2022-02-23 22:00:00,15.73169153,0.0001512,53.2156,321.4296,34.9078,165.6077,3.861300000000001e-05,4.795e-05,0.0,0 STARLINK-3333,1 50805U 22001C   22054.91667824  .00004795  00000-0  38613-4 0  9999,2 50805  53.2156 321.4296 0001512  34.9078 165.6077 15.73169153  3713,6727.983,91.535,350.865,348.831,0.0
50805.0,STARLINK-3333,PAYLOAD,2022-02-24 06:00:00,15.73180247,0.0001649,53.2154,319.7809,29.4196,260.002,0.00042301,0.00059116,0.0,0 STARLINK-3333,1 50805U 22001C   22055.25001157  .00059116  00000-0  42301-3 0  9993,2 50805  53.2154 319.7809 0001649  29.4196 260.0020 15.73180247  8914,6727.951,91.534,350.926,348.707,0.0
50805.0,STARLINK-3333,PAYLOAD,2022-02-24 14:00:01,15.73204681,0.000145,53.2174,318.1269,35.9658,342.2238,-3.9961e-06,-1.181e-05,0.0,0 STARLINK-3333,1 50805U 22001C   22055.58334491 -.00001181  00000-0 -39961-5 0  9990,2 50805  53.2174 318.1269 0001450  35.9658 342.2238 15.73204681  3697,6727.882,91.533,350.722,348.771,0.0
50805.0,STARLINK-3333,PAYLOAD,2022-02-24 22:00:00,15.73214802,0.0001684,53.216,316.4801,39.051,68.2953,0.00010802,0.00014575,0.0,0 STARLINK-3333,1 50805U 22001C   22055.91667824  .00014575  00000-0  10802-3 0  9996,2 50805  53.2160 316.4801 0001684  39.0510  68.2953 15.73214802  9024,6727.853,91.532,350.851,348.585,0.0
50805.0,STARLINK-3333,PAYLOAD,2022-02-25 06:00:00,15.73229214,0.0001706,53.2147,314.8322,34.6867,161.5811,-0.0004602,-0.00064795,0.0,0 STARLINK-3333,1 50805U 22001C   22056.25001157 -.00064795  00000-0 -46020-3 0  9997,2 50805  53.2147 314.8322 0001706  34.6867 161.5811 15.73229214  9078,6727.812,91.531,350.825,348.529,0.0
50805.0,STARLINK-3333,PAYLOAD,2022-02-25 14:00:01,15.73169199,0.0001433,53.2149,313.1806,38.3105,246.8975,0.0003373,0.0004692,0.0,0 STARLINK-3333,1 50805U 22001C   22056.58334491  .00046920  00000-0  33730-3 0  9995,2 50805  53.2149 313.1806 0001433  38.3105 246.8975 15.73169199  3697,6727.983,91.535,350.81199999999984,348.884,0.0
50805.0,STARLINK-3333,PAYLOAD,2022-02-25 22:00:00,15.73183177,0.0001692,53.2152,311.5325,41.5254,332.59,-0.00026542,-0.00037678,0.0,0 STARLINK-3333,1 50805U 22001C   22056.91667824 -.00037678  00000-0 -26542-3 0  9996,2 50805  53.2152 311.5325 0001692  41.5254 332.5900 15.73183177  9180,6727.943,91.534,350.94699999999995,348.67,0.0
50805.0,STARLINK-3333,PAYLOAD,2022-02-26 14:00:01,15.73178885,0.000158,53.215,308.2322,43.2692,148.6669,0.00052427,0.00073538,0.0,0 STARLINK-3333,1 50805U 22001C   22057.58334491  .00073538  00000-0  52427-3 0  9995,2 50805  53.2150 308.2322 0001580  43.2692 148.6669 15.73178885  9288,6727.955,91.534,350.8830000000001,348.75699999999995,0.0
50805.0,STARLINK-3333,PAYLOAD,2022-02-26 20:00:01,15.73259321,0.0001631,53.2151,306.9961,40.7864,127.9031,-0.00073889,-0.0010332,0.0,0 STARLINK-3333,1 50805U 22001C   22057.83335648 -.00103320  00000-0 -73889-3 0  9998,2 50805  53.2151 306.9961 0001631  40.7864 127.9031 15.73259321  9326,6727.726,91.53,350.68800000000016,348.494,0.0
50805.0,STARLINK-3333,PAYLOAD,2022-02-26 22:00:00,15.73238807,0.0001673,53.2148,306.5844,38.2374,242.6335,-0.00064982,-0.00090993,0.0,0 STARLINK-3333,1 50805U 22001C   22057.91667824 -.00090993  00000-0 -64982-3 0  9996,2 50805  53.2148 306.5844 0001673  38.2374 242.6335 15.73238807  3706,6727.785,91.531,350.775,348.524,0.0
50805.0,STARLINK-3333,PAYLOAD,2022-02-27 06:00:00,15.73186807,0.000166,53.2143,304.9352,32.0192,337.7804,0.00014211,0.00019359,0.0,0 STARLINK-3333,1 50805U 22001C   22058.25001157  .00019359  00000-0  14211-3 0  9990,2 50805  53.2143 304.9352 0001660  32.0192 337.7804 15.73186807  9393,6727.933000000001,91.534,350.915,348.681,0.0
50805.0,STARLINK-3333,PAYLOAD,2022-02-27 12:00:00,15.72909216,0.0001779,53.2165,303.6942,47.611,298.9862,0.0023244,0.00334753,0.0,0 STARLINK-3333,1 50805U 22001C   22058.50001157  .00334753  00000-0  23244-2 0  9991,2 50805  53.2165 303.6942 0001779  47.6110 298.9862 15.72909216  9423,6728.724,91.55,351.786,349.392,0.0
50805.0,STARLINK-3333,PAYLOAD,2022-02-27 14:00:01,15.72867163,0.0001776999999999,53.2166,303.2811,48.3567,50.4325,0.0035293,0.00519154,0.0,0 STARLINK-3333,1 50805U 22001C   22058.58334491  .00519154  00000-0  35293-2 0  9996,2 50805  53.2166 303.2811 0001777  48.3567  50.4325 15.72867163  3699,6728.844,91.553,351.905,349.514,0.0
50805.0,STARLINK-3333,PAYLOAD,2022-02-27 22:00:00,15.73270442,0.000167,53.2146,301.636,38.5843,149.1281,-0.00040543,-0.00057307,0.0,0 STARLINK-3333,1 50805U 22001C   22058.91667824 -.00057307  00000-0 -40543-3 0  9996,2 50805  53.2146 301.6360 0001670  38.5843 149.1281 15.73270442  9498,6727.694,91.529,350.68300000000005,348.436,0.0
50805.0,STARLINK-3333,PAYLOAD,2022-02-28 04:00:00,15.73228317,0.0001754,53.2144,300.3993,35.2521,129.2234,0.00013523,0.00018423,0.0,0 STARLINK-3333,1 50805U 22001C   22059.16667824  .00018423  00000-0  13523-3 0  9996,2 50805  53.2144 300.3993 0001754  35.2521 129.2234 15.73228317  9530,6727.814,91.532,350.86,348.499,0.0
50805.0,STARLINK-3333,PAYLOAD,2022-02-28 14:00:01,15.73191626,0.0001488,53.2143,298.3351,40.1193,325.5704,0.00012023,0.0001628,0.0,0 STARLINK-3333,1 50805U 22001C   22059.58334491  .00016280  00000-0  12023-3 0  9996,2 50805  53.2143 298.3351 0001488  40.1193 325.5704 15.73191626  9600,6727.919,91.534,350.785,348.783,0.0
